CCSDS_OEM_VERS = 1.0
CREATION_DATE  = 2017-05-11T10:58:37
ORIGINATOR     = GMAT USER

META_START
OBJECT_NAME          = MOPSSat_alt_35785_km_RAAN_0_041
OBJECT_ID            = SatId
CENTER_NAME          = Earth
REF_FRAME            = EME2000
TIME_SYSTEM          = UTC
START_TIME           = 2017-01-01T00:00:00.000
USEABLE_START_TIME   = 2017-01-01T00:00:00.000
USEABLE_STOP_TIME    = 2017-01-02T00:00:00.000
STOP_TIME            = 2017-01-02T00:00:00.000
INTERPOLATION        = Lagrange
INTERPOLATION_DEGREE = 7 
META_STOP


                                                                                   

2017-01-01T12:59:10.000  -4.066125566462192e+04  -1.115574093292371e+04   1.154091955241207e+00   8.133077876427403e-01  -2.965153992226510e+00   2.707443551873483e-05
2017-01-01T12:59:20.000  -4.065311177613386e+04  -1.118538950323404e+04   1.154362456676829e+00   8.154698678918526e-01  -2.964559916845367e+00   2.702584614125817e-05
2017-01-01T12:59:30.000  -4.064494626902087e+04  -1.121503212487532e+04   1.154632472024430e+00   8.176315142144130e-01  -2.963964265074346e+00   2.697721797881437e-05
2017-01-01T12:59:40.000  -4.063675914754182e+04  -1.124466878240154e+04   1.154902000899155e+00   8.197927254842434e-01  -2.963367037224343e+00   2.692855104971057e-05
2017-01-01T12:59:50.000  -4.062855041604760e+04  -1.127429946006873e+04   1.155171042913549e+00   8.219535005534359e-01  -2.962768233612964e+00   2.687984537276358e-05
2017-01-01T13:00:00.000  -4.062032007890563e+04  -1.130392414212073e+04   1.155439597680218e+00   8.241138382731977e-01  -2.962167854559016e+00   2.683110096684676e-05
2017-01-01T13:00:10.000  -4.061206814049833e+04  -1.133354281278893e+04   1.155707664811803e+00   8.262737374938257e-01  -2.961565900382408e+00   2.678231785088435e-05
2017-01-01T13:00:20.000  -4.060379460530563e+04  -1.136315545600825e+04   1.155975243918466e+00   8.284331970439989e-01  -2.960962371410155e+00   2.673349604433597e-05
2017-01-01T13:00:30.000  -4.059549947779519e+04  -1.139276205579998e+04   1.156242334611304e+00   8.305922157586954e-01  -2.960357267968379e+00   2.668463556654961e-05
2017-01-01T13:00:40.000  -4.058718276246615e+04  -1.142236259611804e+04   1.156508936500968e+00   8.327507924679799e-01  -2.959750590385497e+00   2.663573643702034e-05
2017-01-01T13:00:50.000  -4.057884446365827e+04  -1.145195706152814e+04   1.156775049203782e+00   8.349089260465320e-01  -2.959142338978301e+00   2.658679867425813e-05
2017-01-01T13:01:00.000  -4.057048458574303e+04  -1.148154543652685e+04   1.157040672335610e+00   8.370666153639894e-01  -2.958532514065890e+00   2.653782229692251e-05
2017-01-01T13:01:10.000  -4.056210313307453e+04  -1.151112770571741e+04   1.157305805513440e+00   8.392238592977720e-01  -2.957921115966101e+00   2.648880732352890e-05
2017-01-01T13:01:20.000  -4.055370011012083e+04  -1.154070385333679e+04   1.157570448351098e+00   8.413806566985852e-01  -2.957308145005079e+00   2.643975377323708e-05
2017-01-01T13:01:30.000  -4.054527552135595e+04  -1.157027386364605e+04   1.157834600462797e+00   8.435370064188962e-01  -2.956693601509410e+00   2.639066166519954e-05
2017-01-01T13:01:40.000  -4.053682937128474e+04  -1.159983772084041e+04   1.158098261462313e+00   8.456929073063683e-01  -2.956077485807920e+00   2.634153101871290e-05
2017-01-01T13:01:50.000  -4.052836166443445e+04  -1.162939540908442e+04   1.158361430963341e+00   8.478483582064315e-01  -2.955459798231068e+00   2.629236185315281e-05
2017-01-01T13:02:00.000  -4.051987240534873e+04  -1.165894691252823e+04   1.158624108579604e+00   8.500033579634650e-01  -2.954840539110517e+00   2.624315418795435e-05
2017-01-01T13:02:10.000  -4.051136159857760e+04  -1.168849221534296e+04   1.158886293925173e+00   8.521579054233752e-01  -2.954219708778388e+00   2.619390804254939e-05
2017-01-01T13:02:20.000  -4.050282924867384e+04  -1.171803130173756e+04   1.159147986614646e+00   8.543119994348314e-01  -2.953597307567004e+00   2.614462343635148e-05
2017-01-01T13:02:30.000  -4.049427536018145e+04  -1.174756415599319e+04   1.159409186263414e+00   8.564656388517687e-01  -2.952973335808046e+00   2.609530038868493e-05
2017-01-01T13:02:40.000  -4.048569993766232e+04  -1.177709076237372e+04   1.159669892486890e+00   8.586188225268593e-01  -2.952347793834500e+00   2.604593891893933e-05
2017-01-01T13:02:50.000  -4.047710298558103e+04  -1.180661110551412e+04   1.159930104903889e+00   8.607715493398398e-01  -2.951720681972250e+00   2.599653904590548e-05
2017-01-01T13:03:00.000  -4.046848450844386e+04  -1.183612516994965e+04   1.160189823132520e+00   8.629238181631759e-01  -2.951092000550228e+00   2.594710078857717e-05
2017-01-01T13:03:10.000  -4.045984451074657e+04  -1.186563294029390e+04   1.160449046791740e+00   8.650756278750447e-01  -2.950461749896595e+00   2.589762416584888e-05
2017-01-01T13:03:20.000  -4.045118299717618e+04  -1.189513440054880e+04   1.160707775495296e+00   8.672269773090215e-01  -2.949829930353457e+00   2.584810919768117e-05
2017-01-01T13:03:30.000  -4.044249997240928e+04  -1.192462953479468e+04   1.160966008857788e+00   8.693778653043978e-01  -2.949196542262167e+00   2.579855590393589e-05
2017-01-01T13:03:40.000  -4.043379544116393e+04  -1.195411832701211e+04   1.161223746493105e+00   8.715282906931907e-01  -2.948561585967096e+00   2.574896430467692e-05
2017-01-01T13:03:50.000  -4.042506940806304e+04  -1.198360076155347e+04   1.161480988018588e+00   8.736782523345309e-01  -2.947925061805678e+00   2.569933441937611e-05
2017-01-01T13:04:00.000  -4.041632187774669e+04  -1.201307682275368e+04   1.161737733051588e+00   8.758277490862780e-01  -2.947286970116597e+00   2.564966626756862e-05
2017-01-01T13:04:10.000  -4.040755285484633e+04  -1.204254649501999e+04   1.161993981210255e+00   8.779767798115670e-01  -2.946647311237904e+00   2.559995986870141e-05
2017-01-01T13:04:20.000  -4.039876234399352e+04  -1.207200976279687e+04   1.162249732113211e+00   8.801253433762440e-01  -2.946006085507661e+00   2.555021524219301e-05
2017-01-01T13:04:30.000  -4.038995034982600e+04  -1.210146661054982e+04   1.162504985379421e+00   8.822734386476930e-01  -2.945363293264381e+00   2.550043240745983e-05
2017-01-01T13:04:40.000  -4.038111687699834e+04  -1.213091702273017e+04   1.162759740627903e+00   8.844210644922629e-01  -2.944718934847802e+00   2.545061138397659e-05
2017-01-01T13:04:50.000  -4.037226193018557e+04  -1.216036098375819e+04   1.163013997477545e+00   8.865682197740399e-01  -2.944073010599152e+00   2.540075219130049e-05
2017-01-01T13:05:00.000  -4.036338551409505e+04  -1.218979847798894e+04   1.163267755546845e+00   8.887149033523534e-01  -2.943425520862020e+00   2.535085484913377e-05
2017-01-01T13:05:10.000  -4.035448763343903e+04  -1.221922948980148e+04   1.163521014454671e+00   8.908611140882847e-01  -2.942776465980347e+00   2.530091937717131e-05
2017-01-01T13:05:20.000  -4.034556829305382e+04  -1.224865400321173e+04   1.163773773816967e+00   8.930068508164327e-01  -2.942125846307129e+00   2.525094579576056e-05
2017-01-01T13:05:30.000  -4.033662749775581e+04  -1.227807200234178e+04   1.164026033250752e+00   8.951521123791412e-01  -2.941473662193899e+00   2.520093412510286e-05
2017-01-01T13:05:40.000  -4.032766525239469e+04  -1.230748347124531e+04   1.164277792372632e+00   8.972968976137641e-01  -2.940819913994629e+00   2.515088438554931e-05
2017-01-01T13:05:50.000  -4.031868156164754e+04  -1.233688839458420e+04   1.164529050804591e+00   8.994412054020092e-01  -2.940164602050695e+00   2.510079659645598e-05
2017-01-01T13:06:00.000  -4.030967643022424e+04  -1.236628675695360e+04   1.164779808168209e+00   9.015850346207169e-01  -2.939507726705858e+00   2.505067077732485e-05
2017-01-01T13:06:10.000  -4.030064986282107e+04  -1.239567854303498e+04   1.165030064085979e+00   9.037283841530230e-01  -2.938849288302897e+00   2.500050694754724e-05
2017-01-01T13:06:20.000  -4.029160186423483e+04  -1.242506373721456e+04   1.165279818178002e+00   9.058712528605350e-01  -2.938189287191915e+00   2.495030512703883e-05
2017-01-01T13:06:30.000  -4.028253243927901e+04  -1.245444232386688e+04   1.165529070064461e+00   9.080136396040079e-01  -2.937527723724238e+00   2.490006533577236e-05
2017-01-01T13:06:40.000  -4.027344159278268e+04  -1.248381428735445e+04   1.165777819365592e+00   9.101555432433190e-01  -2.936864598252325e+00   2.484978759377187e-05
2017-01-01T13:06:50.000  -4.026432932968070e+04  -1.251317961174621e+04   1.166026065699364e+00   9.122969626169383e-01  -2.936199911136344e+00   2.479947192161187e-05
2017-01-01T13:07:00.000  -4.025519565489318e+04  -1.254253828119706e+04   1.166273808684635e+00   9.144378965696065e-01  -2.935533662735401e+00   2.474911833975074e-05
2017-01-01T13:07:10.000  -4.024604057337274e+04  -1.257189027979830e+04   1.166521047939898e+00   9.165783439414260e-01  -2.934865853410960e+00   2.469872686879229e-05
2017-01-01T13:07:20.000  -4.023686408989794e+04  -1.260123559224004e+04   1.166767783088866e+00   9.187183036161648e-01  -2.934196483511795e+00   2.464829752833808e-05
2017-01-01T13:07:30.000  -4.022766620927955e+04  -1.263057420314868e+04   1.167014013754885e+00   9.208577744729477e-01  -2.933525553389023e+00   2.459783033813481e-05
2017-01-01T13:07:40.000  -4.021844693631429e+04  -1.265990609723687e+04   1.167259739562206e+00   9.229967553971892e-01  -2.932853063392741e+00   2.454732531781402e-05
2017-01-01T13:07:50.000  -4.020920627590132e+04  -1.268923125892268e+04   1.167504960132733e+00   9.251352452528218e-01  -2.932179013880514e+00   2.449678248755167e-05
2017-01-01T13:08:00.000  -4.019994423295659e+04  -1.271854967261260e+04   1.167749675088456e+00   9.272732429029357e-01  -2.931503405211131e+00   2.444620186757730e-05
2017-01-01T13:08:10.000  -4.019066081241163e+04  -1.274786132270121e+04   1.167993884051427e+00   9.294107472097500e-01  -2.930826237744522e+00   2.439558347817567e-05
